[{"OBJECT_NAME":"YAOGAN-42 01","OBJECT_ID":"2024-063A","EPOCH":"2026-03-09T23:33:22.802688","MEAN_MOTION":15.23115119,"ECCENTRICITY":0.00025743,"INCLINATION":34.9985,"RA_OF_ASC_NODE":29.746,"ARG_OF_PERICENTER":171.5443,"MEAN_ANOMALY":188.5315,"EPHEMERIS_TYPE":0,"CLASSIFICATION_TYPE":"U","NORAD_CAT_ID":59395,"ELEMENT_SET_NO":999,"REV_AT_EPOCH":10771,"BSTAR":0.00052016126,"MEAN_MOTION_DOT":0.00012558,"MEAN_MOTION_DDOT":0},{"OBJECT_NAME":"OBJECT E","OBJECT_ID":"2024-174E","EPOCH":"2026-03-09T23:40:24.424320","MEAN_MOTION":15.26241811,"ECCENTRICITY":0.00122518,"INCLINATION":97.4515,"RA_OF_ASC_NODE":80.1669,"ARG_OF_PERICENTER":217.7524,"MEAN_ANOMALY":142.2856,"EPHEMERIS_TYPE":0,"CLASSIFICATION_TYPE":"U","NORAD_CAT_ID":61242,"ELEMENT_SET_NO":999,"REV_AT_EPOCH":8070,"BSTAR":0.00031155901,"MEAN_MOTION_DOT":8.013e-5,"MEAN_MOTION_DDOT":0}]
